[
    {
        "CCSDS_OMM_VERS": "3.0",
        "COMMENT": "GENERATED VIA SPACE-TRACK.ORG API",
        "CREATION_DATE": "2025-05-03T17:28:03",
        "ORIGINATOR": "18 SPCS",
        "OBJECT_NAME": "COSMOS 2474 (GLONASS)",
        "OBJECT_ID": "2011-055A",
        "CENTER_NAME": "EARTH",
        "REF_FRAME": "TEME",
        "TIME_SYSTEM": "UTC",
        "MEAN_ELEMENT_THEORY": "SGP4",
        "EPOCH": "2025-05-03T12:25:37.938144",
        "MEAN_MOTION": "2.13101241",
        "ECCENTRICITY": "0.00112990",
        "INCLINATION": "65.0620",
        "RA_OF_ASC_NODE": "86.7278",
        "ARG_OF_PERICENTER": "250.4544",
        "MEAN_ANOMALY": "222.7053",
        "EPHEMERIS_TYPE": "0",
        "CLASSIFICATION_TYPE": "U",
        "NORAD_CAT_ID": "37829",
        "ELEMENT_SET_NO": "999",
        "REV_AT_EPOCH": "10572",
        "BSTAR": "0.00000000000000",
        "MEAN_MOTION_DOT": "0.00000027",
        "MEAN_MOTION_DDOT": "0.0000000000000",
        "SEMIMAJOR_AXIS": "25508.085",
        "PERIOD": "675.735",
        "APOAPSIS": "19158.772",
        "PERIAPSIS": "19101.128",
        "OBJECT_TYPE": "PAYLOAD",
        "RCS_SIZE": "LARGE",
        "COUNTRY_CODE": "CIS",
        "LAUNCH_DATE": "2011-10-02",
        "SITE": "PKMTR",
        "DECAY_DATE": null,
        "FILE": "4717971",
        "GP_ID": "286758790",
        "TLE_LINE0": "0 COSMOS 2474 (GLONASS)",
        "TLE_LINE1": "1 37829U 11055A   25123.51780021  .00000027  00000-0  00000-0 0  9997",
        "TLE_LINE2": "2 37829  65.0620  86.7278 0011299 250.4544 222.7053  2.13101241105725"
    }
]